FENGYUN 1C DEB          
1 30489U 99025AHB 17345.91730336  .00000097  00000-0  68369-4 0  9993
2 30489  98.8094  56.4288 0143757 342.6040  70.5873 14.13160662560846
